{"type": "FeatureCollection", "features": [ {"type": "Feature", "properties": {"norad_id": 66558, "name": "STARLINK-35695", "group": "last-30-days", "lat": 23.863110677829077, "lon": 144.7063386505813, "alt_km": 412.688740235305, "timestamp": "2025-12-13T13:34:33.864101+00:00", "meta": {"OBJECT_NAME": "STARLINK-35695", "OBJECT_ID": "2025-268B", "EPOCH": "2025-12-12T20:00:01.999872", "MEAN_MOTION": 15.50606537, "ECCENTRICITY": 0.00032071, "INCLINATION": 43, "RA_OF_ASC_NODE": 120.6494, "ARG_OF_PERICENTER": 268.2851, "MEAN_ANOMALY": 355.4858, "EPHEMERIS_TYPE": 0, "CLASSIFICATION_TYPE": "U", "NORAD_CAT_ID": 66558, "ELEMENT_SET_NO": 999, "REV_AT_EPOCH": 468, "BSTAR": -0.0012559852, "MEAN_MOTION_DOT": -0.00073425, "MEAN_MOTION_DDOT": 0}, "tle": {"line1": "1 66558U 25268B   25346.83335648 -.00073425  00000+0 -12560-2 0  9991", "line2": "2 66558  43.0000 120.6494 0003207 268.2851 355.4858 15.50606537  4683"}}, "geometry": {"type": "Point", "coordinates": [144.7063386505813, 23.863110677829077]}}, {"type": "Feature", "properties": {"norad_id": 66559, "name": "STARLINK-35419", "group": "last-30-days", "lat": 25.076344028750054, "lon": 146.5028914666501, "alt_km": 412.19530391981516, "timestamp": "2025-12-13T13:34:33.864110+00:00", "meta": {"OBJECT_NAME": "STARLINK-35419", "OBJECT_ID": "2025-268C", "EPOCH": "2025-12-12T20:00:01.999872", "MEAN_MOTION": 15.50584815, "ECCENTRICITY": 0.00028289, "INCLINATION": 42.9999, "RA_OF_ASC_NODE": 120.6451, "ARG_OF_PERICENTER": 252.0719, "MEAN_ANOMALY": 13.5102, "EPHEMERIS_TYPE": 0, "CLASSIFICATION_TYPE": "U", "NORAD_CAT_ID": 66559, "ELEMENT_SET_NO": 999, "REV_AT_EPOCH": 468, "BSTAR": 0.0013406684, "MEAN_MOTION_DOT": 0.00079131, "MEAN_MOTION_DDOT": 0}, "tle": {"line1": "1 66559U 25268C   25346.83335648  .00079131  00000+0  13407-2 0  9991", "line2": "2 66559  42.9999 120.6451 0002828 252.0719  13.5102 15.50584815  4682"}}, "geometry": {"type": "Point", "coordinates": [146.5028914666501, 25.076344028750054]}}, {"type": "Feature", "properties": {"norad_id": 66560, "name": "STARLINK-35411", "group": "last-30-days", "lat": 26.07744096278899, "lon": 148.0375635449223, "alt_km": 412.2506665393048, "timestamp": "2025-12-13T13:34:33.864124+00:00", "meta": {"OBJECT_NAME": "STARLINK-35411", "OBJECT_ID": "2025-268D", "EPOCH": "2025-12-12T20:00:01.999872", "MEAN_MOTION": 15.50715423, "ECCENTRICITY": 0.00018144, "INCLINATION": 43, "RA_OF_ASC_NODE": 120.6399, "ARG_OF_PERICENTER": 278.3958, "MEAN_ANOMALY": 349.2418, "EPHEMERIS_TYPE": 0, "CLASSIFICATION_TYPE": "U", "NORAD_CAT_ID": 66560, "ELEMENT_SET_NO": 999, "REV_AT_EPOCH": 468, "BSTAR": -0.0047410545, "MEAN_MOTION_DOT": -0.00270418, "MEAN_MOTION_DDOT": 0}, "tle": {"line1": "1 66560U 25268D   25346.83335648 -.00270418  00000+0 -47411-2 0  9998", "line2": "2 66560  43.0000 120.6399 0001814 278.3958 349.2418 15.50715423  4680"}}, "geometry": {"type": "Point", "coordinates": [148.0375635449223, 26.07744096278899]}}, {"type": "Feature", "properties": {"norad_id": 66561, "name": "STARLINK-35305", "group": "last-30-days", "lat": 28.292588334480286, "lon": 151.6312682163429, "alt_km": 411.35915435886, "timestamp": "2025-12-13T13:34:33.864133+00:00", "meta": {"OBJECT_NAME": "STARLINK-35305", "OBJECT_ID": "2025-268E", "EPOCH": "2025-12-12T20:00:01.999872", "MEAN_MOTION": 15.50629043, "ECCENTRICITY": 0.00013196, "INCLINATION": 43, "RA_OF_ASC_NODE": 120.6305, "ARG_OF_PERICENTER": 273.9325, "MEAN_ANOMALY": 357.4956, "EPHEMERIS_TYPE": 0, "CLASSIFICATION_TYPE": "U", "NORAD_CAT_ID": 66561, "ELEMENT_SET_NO": 999, "REV_AT_EPOCH": 463, "BSTAR": -0.0017749376, "MEAN_MOTION_DOT": -0.00103289, "MEAN_MOTION_DDOT": 0}, "tle": {"line1": "1 66561U 25268E   25346.83335648 -.00103289  00000+0 -17749-2 0  9991", "line2": "2 66561  43.0000 120.6305 0001319 273.9325 357.4956 15.50629043  4632"}}, "geometry": {"type": "Point", "coordinates": [151.6312682163429, 28.292588334480286]}}, {"type": "Feature", "properties": {"norad_id": 66562, "name": "STARLINK-35579", "group": "last-30-days", "lat": 27.212145311329373, "lon": 149.8415662787232, "alt_km": 411.47201347777536, "timestamp": "2025-12-13T13:34:33.864142+00:00", "meta": {"OBJECT_NAME": "STARLINK-35579", "OBJECT_ID": "2025-268F", "EPOCH": "2025-12-12T20:00:01.999872", "MEAN_MOTION": 15.5062804, "ECCENTRICITY": 0.00014393, "INCLINATION": 43.0001, "RA_OF_ASC_NODE": 120.6351, "ARG_OF_PERICENTER": 279.4574, "MEAN_ANOMALY": 350.052, "EPHEMERIS_TYPE": 0, "CLASSIFICATION_TYPE": "U", "NORAD_CAT_ID": 66562, "ELEMENT_SET_NO": 999, "REV_AT_EPOCH": 468, "BSTAR": -0.0017704834, "MEAN_MOTION_DOT": -0.00103031, "MEAN_MOTION_DDOT": 0}, "tle": {"line1": "1 66562U 25268F   25346.83335648 -.00103031  00000+0 -17705-2 0  9999", "line2": "2 66562  43.0001 120.6351 0001439 279.4574 350.0520 15.50628040  4682"}}, "geometry": {"type": "Point", "coordinates": [149.8415662787232, 27.212145311329373]}}, {"type": "Feature", "properties": {"norad_id": 66563, "name": "STARLINK-35437", "group": "last-30-days", "lat": 29.343157175157508, "lon": 153.44611270727523, "alt_km": 411.3139953454538, "timestamp": "2025-12-13T13:34:33.864152+00:00", "meta": {"OBJECT_NAME": "STARLINK-35437", "OBJECT_ID": "2025-268G", "EPOCH": "2025-12-12T20:00:01.999872", "MEAN_MOTION": 15.50638402, "ECCENTRICITY": 0.00014723, "INCLINATION": 43, "RA_OF_ASC_NODE": 120.6253, "ARG_OF_PERICENTER": 274.3183, "MEAN_ANOMALY": 359.0228, "EPHEMERIS_TYPE": 0, "CLASSIFICATION_TYPE": "U", "NORAD_CAT_ID": 66563, "ELEMENT_SET_NO": 999, "REV_AT_EPOCH": 468, "BSTAR": -0.0020518534, "MEAN_MOTION_DOT": -0.00119152, "MEAN_MOTION_DDOT": 0}, "tle": {"line1": "1 66563U 25268G   25346.83335648 -.00119152  00000+0 -20519-2 0  9998", "line2": "2 66563  43.0000 120.6253 0001472 274.3183 359.0228 15.50638402  4687"}}, "geometry": {"type": "Point", "coordinates": [153.44611270727523, 29.343157175157508]}}, {"type": "Feature", "properties": {"norad_id": 66564, "name": "STARLINK-35358", "group": "last-30-days", "lat": 30.38965716252959, "lon": 155.33842454333012, "alt_km": 410.85070302371605, "timestamp": "2025-12-13T13:34:33.864160+00:00", "meta": {"OBJECT_NAME": "STARLINK-35358", "OBJECT_ID": "2025-268H", "EPOCH": "2025-12-12T20:00:01.999872", "MEAN_MOTION": 15.50592738, "ECCENTRICITY": 0.00014175, "INCLINATION": 43.0001, "RA_OF_ASC_NODE": 120.6211, "ARG_OF_PERICENTER": 284.4652, "MEAN_ANOMALY": 350.8153, "EPHEMERIS_TYPE": 0, "CLASSIFICATION_TYPE": "U", "NORAD_CAT_ID": 66564, "ELEMENT_SET_NO": 999, "REV_AT_EPOCH": 463, "BSTAR": -0.00092471057, "MEAN_MOTION_DOT": -0.00054242, "MEAN_MOTION_DDOT": 0}, "tle": {"line1": "1 66564U 25268H   25346.83335648 -.00054242  00000+0 -92471-3 0  9994", "line2": "2 66564  43.0001 120.6211 0001417 284.4652 350.8153 15.50592738  4637"}}, "geometry": {"type": "Point", "coordinates": [155.33842454333012, 30.38965716252959]}}, {"type": "Feature", "properties": {"norad_id": 66565, "name": "STARLINK-35893", "group": "last-30-days", "lat": 31.386050054394556, "lon": 157.22712972432777, "alt_km": 411.0474081411485, "timestamp": "2025-12-13T13:34:33.864169+00:00", "meta": {"OBJECT_NAME": "STARLINK-35893", "OBJECT_ID": "2025-268J", "EPOCH": "2025-12-12T20:00:01.999872", "MEAN_MOTION": 15.50613843, "ECCENTRICITY": 0.00014755, "INCLINATION": 43.0002, "RA_OF_ASC_NODE": 120.6159, "ARG_OF_PERICENTER": 266.7793, "MEAN_ANOMALY": 10.4098, "EPHEMERIS_TYPE": 0, "CLASSIFICATION_TYPE": "U", "NORAD_CAT_ID": 66565, "ELEMENT_SET_NO": 999, "REV_AT_EPOCH": 468, "BSTAR": -0.0014285058, "MEAN_MOTION_DOT": -0.00083362, "MEAN_MOTION_DDOT": 0}, "tle": {"line1": "1 66565U 25268J   25346.83335648 -.00083362  00000+0 -14285-2 0  9996", "line2": "2 66565  43.0002 120.6159 0001475 266.7793  10.4098 15.50613843  4686"}}, "geometry": {"type": "Point", "coordinates": [157.22712972432777, 31.386050054394556]}}, {"type": "Feature", "properties": {"norad_id": 66566, "name": "STARLINK-35871", "group": "last-30-days", "lat": 32.35600174253766, "lon": 159.16048853085604, "alt_km": 410.72215192837393, "timestamp": "2025-12-13T13:34:33.864178+00:00", "meta": {"OBJECT_NAME": "STARLINK-35871", "OBJECT_ID": "2025-268K", "EPOCH": "2025-12-12T20:00:01.999872", "MEAN_MOTION": 15.50622558, "ECCENTRICITY": 0.00014394, "INCLINATION": 43.0001, "RA_OF_ASC_NODE": 120.6109, "ARG_OF_PERICENTER": 283.3158, "MEAN_ANOMALY": 355.7867, "EPHEMERIS_TYPE": 0, "CLASSIFICATION_TYPE": "U", "NORAD_CAT_ID": 66566, "ELEMENT_SET_NO": 999, "REV_AT_EPOCH": 468, "BSTAR": -0.0016987358, "MEAN_MOTION_DOT": -0.00098902, "MEAN_MOTION_DDOT": 0}, "tle": {"line1": "1 66566U 25268K   25346.83335648 -.00098902  00000+0 -16987-2 0  9994", "line2": "2 66566  43.0001 120.6109 0001439 283.3158 355.7867 15.50622558  4683"}}, "geometry": {"type": "Point", "coordinates": [159.16048853085604, 32.35600174253766]}}, {"type": "Feature", "properties": {"norad_id": 66567, "name": "STARLINK-35825", "group": "last-30-days", "lat": 33.29486341623618, "lon": 161.13355103195423, "alt_km": 410.73515583816516, "timestamp": "2025-12-13T13:34:33.864187+00:00", "meta": {"OBJECT_NAME": "STARLINK-35825", "OBJECT_ID": "2025-268L", "EPOCH": "2025-12-12T20:00:01.999872", "MEAN_MOTION": 15.50634079, "ECCENTRICITY": 0.00012563, "INCLINATION": 43.0001, "RA_OF_ASC_NODE": 120.6062, "ARG_OF_PERICENTER": 267.3158, "MEAN_ANOMALY": 13.6962, "EPHEMERIS_TYPE": 0, "CLASSIFICATION_TYPE": "U", "NORAD_CAT_ID": 66567, "ELEMENT_SET_NO": 999, "REV_AT_EPOCH": 468, "BSTAR": -0.0019503014, "MEAN_MOTION_DOT": -0.00113335, "MEAN_MOTION_DDOT": 0}, "tle": {"line1": "1 66567U 25268L   25346.83335648 -.00113335  00000+0 -19503-2 0  9990", "line2": "2 66567  43.0001 120.6062 0001256 267.3158  13.6962 15.50634079  4688"}}, "geometry": {"type": "Point", "coordinates": [161.13355103195423, 33.29486341623618]}}]}